{
  "type": "FeatureCollection",
  "features": [
    {
      "type": "Feature",
      "properties": {
        "norad_id": 66558,
        "name": "STARLINK-35695",
        "group": "last-30-days",
        "lat": 34.33589789748156,
        "lon": -164.86257677168533,
        "alt_km": 396.9830924693915,
        "timestamp": "2025-12-08T03:50:05.784003+00:00",
        "meta_object_name": "STARLINK-35695",
        "meta_object_id": "2025-268B",
        "meta_epoch": "2025-12-07T06:00:04.999968",
        "meta_mean_motion": 15.59232336,
        "meta_eccentricity": 0.00018208,
        "meta_inclination": 42.9997,
        "meta_ra_of_asc_node": 153.3708,
        "meta_arg_of_pericenter": 268.5107,
        "meta_mean_anomaly": 81.1983,
        "meta_ephemeris_type": 0,
        "meta_classification_type": "U",
        "meta_norad_cat_id": 66558,
        "meta_element_set_no": 999,
        "meta_rev_at_epoch": 378,
        "meta_bstar": -0.028612745,
        "meta_mean_motion_dot": -0.02022534,
        "meta_mean_motion_ddot": 0,
        "tle_line1": "1 66558U 25268B   25341.25005787 -.02022534  00000+0 -28613-1 0  9992",
        "tle_line2": "2 66558  42.9997 153.3708 0001820 268.5107  81.1983 15.59232336  3786"
      },
      "geometry": {
        "type": "Point",
        "coordinates": [
          -164.86257677168533,
          34.33589789748156
        ]
      }
    },
    {
      "type": "Feature",
      "properties": {
        "norad_id": 66559,
        "name": "STARLINK-35419",
        "group": "last-30-days",
        "lat": 35.208652964249765,
        "lon": -162.78504149778283,
        "alt_km": 396.84334935781135,
        "timestamp": "2025-12-08T03:50:05.784013+00:00",
        "meta_object_name": "STARLINK-35419",
        "meta_object_id": "2025-268C",
        "meta_epoch": "2025-12-07T06:00:04.999968",
        "meta_mean_motion": 15.59234068,
        "meta_eccentricity": 0.00017659,
        "meta_inclination": 42.9998,
        "meta_ra_of_asc_node": 153.3665,
        "meta_arg_of_pericenter": 268.6978,
        "meta_mean_anomaly": 82.9267,
        "meta_ephemeris_type": 0,
        "meta_classification_type": "U",
        "meta_norad_cat_id": 66559,
        "meta_element_set_no": 999,
        "meta_rev_at_epoch": 378,
        "meta_bstar": -0.028623254,
        "meta_mean_motion_dot": -0.02023258,
        "meta_mean_motion_ddot": 0,
        "tle_line1": "1 66559U 25268C   25341.25005787 -.02023258  00000+0 -28623-1 0  9998",
        "tle_line2": "2 66559  42.9998 153.3665 0001765 268.6978  82.9267 15.59234068  3783"
      },
      "geometry": {
        "type": "Point",
        "coordinates": [
          -162.78504149778283,
          35.208652964249765
        ]
      }
    },
    {
      "type": "Feature",
      "properties": {
        "norad_id": 66560,
        "name": "STARLINK-35411",
        "group": "last-30-days",
        "lat": 36.039501814378305,
        "lon": -160.6779808590047,
        "alt_km": 396.8629745339849,
        "timestamp": "2025-12-08T03:50:05.784023+00:00",
        "meta_object_name": "STARLINK-35411",
        "meta_object_id": "2025-268D",
        "meta_epoch": "2025-12-07T06:00:04.999968",
        "meta_mean_motion": 15.59239136,
        "meta_eccentricity": 0.00018239,
        "meta_inclination": 42.9999,
        "meta_ra_of_asc_node": 153.3619,
        "meta_arg_of_pericenter": 266.4309,
        "meta_mean_anomaly": 87.1084,
        "meta_ephemeris_type": 0,
        "meta_classification_type": "U",
        "meta_norad_cat_id": 66560,
        "meta_element_set_no": 999,
        "meta_rev_at_epoch": 378,
        "meta_bstar": -0.028732622,
        "meta_mean_motion_dot": -0.020304,
        "meta_mean_motion_ddot": 0,
        "tle_line1": "1 66560U 25268D   25341.25005787 -.02030400  00000+0 -28733-1 0  9999",
        "tle_line2": "2 66560  42.9999 153.3619 0001823 266.4309  87.1084 15.59239136  3789"
      },
      "geometry": {
        "type": "Point",
        "coordinates": [
          -160.6779808590047,
          36.039501814378305
        ]
      }
    },
    {
      "type": "Feature",
      "properties": {
        "norad_id": 66561,
        "name": "STARLINK-35305",
        "group": "last-30-days",
        "lat": 37.598808124007135,
        "lon": -156.29288402667808,
        "alt_km": 396.53467569677287,
        "timestamp": "2025-12-08T03:50:05.784046+00:00",
        "meta_object_name": "STARLINK-35305",
        "meta_object_id": "2025-268E",
        "meta_epoch": "2025-12-07T06:00:04.999968",
        "meta_mean_motion": 15.59233965,
        "meta_eccentricity": 0.00017662,
        "meta_inclination": 43,
        "meta_ra_of_asc_node": 153.3523,
        "meta_arg_of_pericenter": 270.3296,
        "meta_mean_anomaly": 87.0463,
        "meta_ephemeris_type": 0,
        "meta_classification_type": "U",
        "meta_norad_cat_id": 66561,
        "meta_element_set_no": 999,
        "meta_rev_at_epoch": 373,
        "meta_bstar": -0.028632859,
        "meta_mean_motion_dot": -0.02023844,
        "meta_mean_motion_ddot": 0,
        "tle_line1": "1 66561U 25268E   25341.25005787 -.02023844  00000+0 -28633-1 0  9993",
        "tle_line2": "2 66561  43.0000 153.3523 0001766 270.3296  87.0463 15.59233965  3733"
      },
      "geometry": {
        "type": "Point",
        "coordinates": [
          -156.29288402667808,
          37.598808124007135
        ]
      }
    },
    {
      "type": "Feature",
      "properties": {
        "norad_id": 66562,
        "name": "STARLINK-35579",
        "group": "last-30-days",
        "lat": 36.84319353592887,
        "lon": -158.49802785860797,
        "alt_km": 396.65764772086186,
        "timestamp": "2025-12-08T03:50:05.784056+00:00",
        "meta_object_name": "STARLINK-35579",
        "meta_object_id": "2025-268F",
        "meta_epoch": "2025-12-07T06:00:04.999968",
        "meta_mean_motion": 15.59234913,
        "meta_eccentricity": 0.00017332,
        "meta_inclination": 43,
        "meta_ra_of_asc_node": 153.3563,
        "meta_arg_of_pericenter": 267.2051,
        "meta_mean_anomaly": 88.2515,
        "meta_ephemeris_type": 0,
        "meta_classification_type": "U",
        "meta_norad_cat_id": 66562,
        "meta_element_set_no": 999,
        "meta_rev_at_epoch": 378,
        "meta_bstar": -0.028608108,
        "meta_mean_motion_dot": -0.02022355,
        "meta_mean_motion_ddot": 0,
        "tle_line1": "1 66562U 25268F   25341.25005787 -.02022355  00000+0 -28608-1 0  9992",
        "tle_line2": "2 66562  43.0000 153.3563 0001733 267.2051  88.2515 15.59234913  3786"
      },
      "geometry": {
        "type": "Point",
        "coordinates": [
          -158.49802785860797,
          36.84319353592887
        ]
      }
    },
    {
      "type": "Feature",
      "properties": {
        "norad_id": 66563,
        "name": "STARLINK-35437",
        "group": "last-30-days",
        "lat": 38.31104606402151,
        "lon": -154.04910244665618,
        "alt_km": 396.5359210143224,
        "timestamp": "2025-12-08T03:50:05.784066+00:00",
        "meta_object_name": "STARLINK-35437",
        "meta_object_id": "2025-268G",
        "meta_epoch": "2025-12-07T06:00:04.999968",
        "meta_mean_motion": 15.59236192,
        "meta_eccentricity": 0.00017498,
        "meta_inclination": 42.9999,
        "meta_ra_of_asc_node": 153.3471,
        "meta_arg_of_pericenter": 266.5056,
        "meta_mean_anomaly": 92.7875,
        "meta_ephemeris_type": 0,
        "meta_classification_type": "U",
        "meta_norad_cat_id": 66563,
        "meta_element_set_no": 999,
        "meta_rev_at_epoch": 378,
        "meta_bstar": -0.028690181,
        "meta_mean_motion_dot": -0.02027522,
        "meta_mean_motion_ddot": 0,
        "tle_line1": "1 66563U 25268G   25341.25005787 -.02027522  00000+0 -28690-1 0  9995",
        "tle_line2": "2 66563  42.9999 153.3471 0001749 266.5056  92.7875 15.59236192  3784"
      },
      "geometry": {
        "type": "Point",
        "coordinates": [
          -154.04910244665618,
          38.31104606402151
        ]
      }
    },
    {
      "type": "Feature",
      "properties": {
        "norad_id": 66564,
        "name": "STARLINK-35358",
        "group": "last-30-days",
        "lat": 38.983006548793966,
        "lon": -151.7492341177384,
        "alt_km": 396.5010344298689,
        "timestamp": "2025-12-08T03:50:05.784076+00:00",
        "meta_object_name": "STARLINK-35358",
        "meta_object_id": "2025-268H",
        "meta_epoch": "2025-12-07T06:00:04.999968",
        "meta_mean_motion": 15.59235904,
        "meta_eccentricity": 0.00018486,
        "meta_inclination": 42.9999,
        "meta_ra_of_asc_node": 153.3426,
        "meta_arg_of_pericenter": 267.4277,
        "meta_mean_anomaly": 93.7814,
        "meta_ephemeris_type": 0,
        "meta_classification_type": "U",
        "meta_norad_cat_id": 66564,
        "meta_element_set_no": 999,
        "meta_rev_at_epoch": 373,
        "meta_bstar": -0.028674606,
        "meta_mean_motion_dot": -0.02026618,
        "meta_mean_motion_ddot": 0,
        "tle_line1": "1 66564U 25268H   25341.25005787 -.02026618  00000+0 -28675-1 0  9994",
        "tle_line2": "2 66564  42.9999 153.3426 0001848 267.4277  93.7814 15.59235904  3739"
      },
      "geometry": {
        "type": "Point",
        "coordinates": [
          -151.7492341177384,
          38.983006548793966
        ]
      }
    }
  ]
}